NORAD_CAT_ID,OBJECT_NAME,OBJECT_TYPE,EPOCH,MEAN_MOTION,ECCENTRICITY,INCLINATION,RA_OF_ASC_NODE,ARG_OF_PERICENTER,MEAN_ANOMALY,BSTAR,MEAN_MOTION_DOT,MEAN_MOTION_DDOT,TLE_LINE0,TLE_LINE1,TLE_LINE2,SEMIMAJOR_AXIS,PERIOD,APOGEE,PERIGEE,DECAYED
55957.0,STARLINK-5884,PAYLOAD,2023-07-15 01:30:31,15.69916976,0.0003335,69.9981,205.657,268.7187,91.3627,5.6851e-06,4.71e-06,0.0,0 STARLINK-5884,1 55957U 23037AV  23196.06286866  .00000471  00000-0  56851-5 0  9991,2 55957  69.9981 205.6570 0003335 268.7187  91.3627 15.69916976 19257,6737.272,91.725,361.383,356.89,0.0
55957.0,STARLINK-5884,PAYLOAD,2023-07-16 01:58:33,15.69925571,0.0003305,69.9981,202.7899,268.8535,91.2282,-1.6959e-06,-4.17e-06,0.0,0 STARLINK-5884,1 55957U 23037AV  23197.08233384 -.00000417  00000-0 -16959-5 0  9998,2 55957  69.9981 202.7899 0003305 268.8535  91.2282 15.69925571 19419,6737.247,91.724,361.339,356.885,0.0
55957.0,STARLINK-5884,PAYLOAD,2023-07-17 10:05:21,15.69926024,0.0002891,69.9984,199.0274,271.0523,89.0342,1.0302e-05,1.026e-05,0.0,0 STARLINK-5884,1 55957U 23037AV  23198.42038307  .00001026  00000-0  10302-4 0  9995,2 55957  69.9984 199.0274 0002891 271.0523  89.0342 15.69926024 19628,6737.246,91.724,361.058,357.163,0.0
55957.0,STARLINK-5884,PAYLOAD,2023-07-18 10:33:23,15.69921549,0.0003178,69.9982,196.1622,270.5031,89.5801,-1.8143e-06,-4.31e-06,0.0,0 STARLINK-5884,1 55957U 23037AV  23199.43985606 -.00000431  00000-0 -18143-5 0  9993,2 55957  69.9982 196.1622 0003178 270.5031  89.5801 15.69921549 19787,6737.258,91.724,361.265,356.982,0.0
55957.0,STARLINK-5884,PAYLOAD,2023-07-18 12:05:08,15.69927593,0.0003186,69.9985,195.9844,259.8959,100.1877,8.6863e-06,8.32e-06,0.0,0 STARLINK-5884,1 55957U 23037AV  23199.50356596  .00000832  00000-0  86863-5 0  9998,2 55957  69.9985 195.9844 0003186 259.8959 100.1877 15.69927593 19790,6737.241,91.724,361.253,356.96,0.0
55957.0,STARLINK-5884,PAYLOAD,2023-07-19 01:50:55,15.6991525,0.0003452,69.9987,194.372,260.5285,99.552,-9.0986e-06,-1.306e-05,0.0,0 STARLINK-5884,1 55957U 23037AV  23200.07702858 -.00001306  00000-0 -90986-5 0  9999,2 55957  69.9987 194.3720 0003452 260.5285  99.5520 15.69915250 19888,6737.276,91.725,361.467,356.816,0.0
55957.0,STARLINK-5884,PAYLOAD,2023-07-19 09:29:40,15.69917978,0.0003202,69.9981,193.4712,259.5639,100.5196,1.16e-05,1.182e-05,0.0,0 STARLINK-5884,1 55957U 23037AV  23200.39560696  .00001182  00000-0  11600-4 0  9991,2 55957  69.9981 193.4712 0003202 259.5639 100.5196 15.69917978 19934,6737.269,91.725,361.291,356.976,0.0
55957.0,STARLINK-5884,PAYLOAD,2023-07-19 11:01:25,15.69925229,0.0003273,69.9975,193.2953,266.3868,93.6953,7.7212e-07,-1.2e-06,0.0,0 STARLINK-5884,1 55957U 23037AV  23200.45932197 -.00000120  00000-0  77212-6 0  9992,2 55957  69.9975 193.2953 0003273 266.3868  93.6953 15.69925229 19942,6737.248,91.724,361.318,356.908,0.0
55957.0,STARLINK-5884,PAYLOAD,2023-07-20 23:43:28,15.69920984,0.0003553,69.9987,188.9967,264.1381,95.941,1.4622e-05,1.545e-05,0.0,0 STARLINK-5884,1 55957U 23037AV  23201.98852223  .00001545  00000-0  14622-4 0  9997,2 55957  69.9987 188.9967 0003553 264.1381  95.9410 15.69920984 20182,6737.26,91.724,361.519,356.731,0.0
55957.0,STARLINK-5884,PAYLOAD,2023-07-24 08:46:19,15.69937475,0.0003691,69.9981,179.5038,265.7715,94.3059,-8.4979e-06,-1.235e-05,0.0,0 STARLINK-5884,1 55957U 23037AV  23205.36550452 -.00001235  00000-0 -84979-5 0  9993,2 55957  69.9981 179.5038 0003691 265.7715  94.3059 15.69937475 20378,6737.213,91.723,361.565,356.591,0.0
55957.0,STARLINK-5884,PAYLOAD,2023-07-25 07:42:37,15.69917096,0.0003295,69.9985,176.8139,271.4162,88.6656,1.1873e-05,1.215e-05,0.0,0 STARLINK-5884,1 55957U 23037AV  23206.32126491  .00001215  00000-0  11873-4 0  9990,2 55957  69.9985 176.8139 0003295 271.4162  88.6656 15.69917096 20527,6737.271,91.725,361.356,356.916,0.0
55957.0,STARLINK-5884,PAYLOAD,2023-07-26 08:10:38,15.69927233,0.0003333,69.9987,173.9494,267.0789,93.0026,7.1615e-06,6.49e-06,0.0,0 STARLINK-5884,1 55957U 23037AV  23207.34072636  .00000649  00000-0  71615-5 0  9995,2 55957  69.9987 173.9494 0003333 267.0789  93.0026 15.69927233 20682,6737.242,91.724,361.353,356.862,0.0
55957.0,STARLINK-5884,PAYLOAD,2023-07-27 07:06:55,15.69943181,0.0003717,69.9986,171.2633,268.2216,91.8554,-3.4689e-05,-4.386e-05,0.0,0 STARLINK-5884,1 55957U 23037AV  23208.29647945 -.00004386  00000-0 -34689-4 0  9994,2 55957  69.9986 171.2633 0003717 268.2216  91.8554 15.69943181 20830,6737.197,91.723,361.566,356.557,0.0
55957.0,STARLINK-5884,PAYLOAD,2023-07-27 14:45:41,15.69942066,0.0003699,69.9987,170.3678,268.8277,91.2495,-3.5999e-05,-4.543e-05,0.0,0 STARLINK-5884,1 55957U 23037AV  23208.61506080 -.00004543  00000-0 -35999-4 0  9994,2 55957  69.9987 170.3678 0003699 268.8277  91.2495 15.69942066 21225,6737.2,91.723,361.557,356.573,0.0
55957.0,STARLINK-5884,PAYLOAD,2023-07-27 20:52:42,15.69916639,0.0003561,69.9986,169.6515,269.9368,90.142,1.2789e-06,-5.9e-07,0.0,0 STARLINK-5884,1 55957U 23037AV  23208.86993570 -.00000059  00000-0  12789-5 0  9995,2 55957  69.9986 169.6515 0003561 269.9368  90.1420 15.69916639 20925,6737.272,91.725,361.537,356.738,0.0
55957.0,STARLINK-5884,PAYLOAD,2023-07-27 23:56:12,15.69921632,0.0003271,70.0,169.2934,270.3745,89.7076,6.4583e-06,5.64e-06,0.0,0 STARLINK-5884,1 55957U 23037AV  23208.99736590  .00000564  00000-0  64583-5 0  9995,2 55957  70.0000 169.2934 0003271 270.3745  89.7076 15.69921632 21289,6737.258,91.724,361.327,356.919,0.0
55957.0,STARLINK-5884,PAYLOAD,2023-07-28 07:34:57,15.69926822,0.000315,69.9991,168.3967,271.9955,88.088,1.2851e-05,1.333e-05,0.0,0 STARLINK-5884,1 55957U 23037AV  23209.31594494  .00001333  00000-0  12851-4 0  9992,2 55957  69.9991 168.3967 0003150 271.9955  88.0880 15.69926822 20995,6737.243,91.724,361.231,356.986,0.0
55957.0,STARLINK-5884,PAYLOAD,2023-07-29 08:02:59,15.69927752,0.0003604,69.9971,165.5314,270.9941,89.0842,1.6595e-05,1.783e-05,0.0,0 STARLINK-5884,1 55957U 23037AV  23210.33540959  .00001783  00000-0  16595-4 0  9991,2 55957  69.9971 165.5314 0003604 270.9941  89.0842 15.69927752 21494,6737.241,91.724,361.534,356.678,0.0
55957.0,STARLINK-5884,PAYLOAD,2023-07-29 14:10:00,15.69919062,0.0003314,69.9978,164.8141,271.186,88.8956,6.6575e-06,5.88e-06,0.0,0 STARLINK-5884,1 55957U 23037AV  23210.59028486  .00000588  00000-0  66575-5 0  9991,2 55957  69.9978 164.8141 0003314 271.1860  88.8956 15.69919062 21535,6737.266,91.724,361.363,356.898,0.0
55957.0,STARLINK-5884,PAYLOAD,2023-07-31 02:52:03,15.69918003,0.0002771,69.9988,160.5143,259.8428,100.2455,-5.9521e-06,-9.28e-06,0.0,0 STARLINK-5884,1 55957U 23037AV  23212.11948828 -.00000928  00000-0 -59521-5 0  9995,2 55957  69.9988 160.5143 0002771 259.8428 100.2455 15.69918003 21773,6737.269,91.725,361.0,357.267,0.0
55957.0,STARLINK-5884,PAYLOAD,2023-07-31 07:27:19,15.69912624,0.0003005,69.9985,159.9765,263.7446,96.3408,-1.1942e-05,-1.647e-05,0.0,0 STARLINK-5884,1 55957U 23037AV  23212.31064405 -.00001647  00000-0 -11942-4 0  9990,2 55957  69.9985 159.9765 0003005 263.7446  96.3408 15.69912624 21807,6737.284,91.725,361.174,357.124,0.0
55957.0,STARLINK-5884,PAYLOAD,2023-07-31 13:34:19,15.69921266,0.0003273,69.9985,159.261,266.7449,93.3372,-3.4225e-06,-6.24e-06,0.0,0 STARLINK-5884,1 55957U 23037AV  23212.56550443 -.00000624  00000-0 -34225-5 0  9993,2 55957  69.9985 159.2610 0003273 266.7449  93.3372 15.69921266 21845,6737.259,91.724,361.329,356.919,0.0
55957.0,STARLINK-5884,PAYLOAD,2023-08-01 00:16:34,15.69927577,0.000318,69.999,158.0063,268.7744,91.3087,2.0892e-05,2.3e-05,0.0,0 STARLINK-5884,1 55957U 23037AV  23213.01151292  .00002300  00000-0  20892-4 0  9998,2 55957  69.9990 158.0063 0003180 268.7744  91.3087 15.69927577 21917,6737.241,91.724,361.249,356.964,0.0
55957.0,STARLINK-5884,PAYLOAD,2023-08-01 06:23:37,15.69896327,0.0002835,69.9985,157.2906,279.0659,81.0216,-1.6465e-05,-2.189e-05,0.0,0 STARLINK-5884,1 55957U 23037AV  23213.26640833 -.00002189  00000-0 -16465-4 0  9997,2 55957  69.9985 157.2906 0002835 279.0659  81.0216 15.69896327 21956,6737.331,91.726,361.106,357.286,0.0
55957.0,STARLINK-5884,PAYLOAD,2023-08-01 23:12:51,15.69924453,0.000303,69.9984,155.3199,261.7409,98.3443,2.0541e-05,2.258e-05,0.0,0 STARLINK-5884,1 55957U 23037AV  23213.96726523  .00002258  00000-0  20541-4 0  9990,2 55957  69.9984 155.3199 0003030 261.7409  98.3443 15.69924453 22065,6737.25,91.724,361.157,357.074,0.0
55957.0,STARLINK-5884,PAYLOAD,2023-08-02 05:19:53,15.69905178,0.0002749,69.9988,154.6032,272.0501,88.038,3.7943e-05,4.348e-05,0.0,0 STARLINK-5884,1 55957U 23037AV  23214.22214314  .00004348  00000-0  37943-4 0  9996,2 55957  69.9988 154.6032 0002749 272.0501  88.0380 15.69905178 22105,6737.305,91.725,361.022,357.318,0.0
55957.0,STARLINK-5884,PAYLOAD,2023-08-02 23:40:53,15.69929722,0.0003227,69.9981,152.4515,277.0824,83.0004,2.9218e-06,1.39e-06,0.0,0 STARLINK-5884,1 55957U 23037AV  23214.98673497  .00000139  00000-0  29218-5 0  9991,2 55957  69.9981 152.4515 0003227 277.0824  83.0004 15.69929722 22227,6737.235,91.724,361.274,356.926,0.0
55957.0,STARLINK-5884,PAYLOAD,2023-08-03 07:19:41,15.69904339,0.000316,69.9984,151.5573,277.233,82.8506,-2.4333e-05,-3.135e-05,0.0,0 STARLINK-5884,1 55957U 23037AV  23215.30533885 -.00003135  00000-0 -24333-4 0  9997,2 55957  69.9984 151.5573 0003160 277.2330  82.8506 15.69904339 22270,6737.308,91.725,361.302,357.044,0.0
55957.0,STARLINK-5884,PAYLOAD,2023-08-03 22:37:11,15.69922553,0.0003846,69.9963,149.7623,279.5489,80.5272,-4.594e-06,-7.65e-06,0.0,0 STARLINK-5884,1 55957U 23037AV  23215.94249260 -.00000765  00000-0 -45940-5 0  9992,2 55957  69.9963 149.7623 0003846 279.5489  80.5272 15.69922553 22377,6737.256,91.724,361.712,356.529,0.0
55957.0,STARLINK-5884,PAYLOAD,2023-08-04 23:05:13,15.69925326,0.0003312,69.9976,146.9007,276.1391,83.9427,-2.5712e-06,-5.22e-06,0.0,0 STARLINK-5884,1 55957U 23037AV  23216.96195784 -.00000522  00000-0 -25712-5 0  9992,2 55957  69.9976 146.9007 0003312 276.1391  83.9427 15.69925326 22537,6737.248,91.724,361.344,356.881,0.0
